{
  "type": "FeatureCollection",
  "features": [
    {
      "type": "Feature",
      "properties": {
        "name": "Rang Letendre",
        "osm_way_id": 349408869
      },
      "geometry": {
        "type": "LineString",
        "coordinates": [
          [
            -72.7390015,
            46.0088976
          ],
          [
            -72.7357183,
            46.0066586
          ],
          [
            -72.7338083,
            46.0053268
          ],
          [
            -72.7283605,
            46.0014935
          ],
          [
            -72.7282645,
            46.0014517
          ],
          [
            -72.7281602,
            46.0014517
          ],
          [
            -72.728056,
            46.0014848
          ],
          [
            -72.7232675,
            46.004782
          ]
        ]
      }
    },
    {
      "type": "Feature",
      "properties": {
        "name": "10e Rang",
        "osm_way_id": 349408868
      },
      "geometry": {
        "type": "LineString",
        "coordinates": [
          [
            -72.7007902,
            45.9886347
          ],
          [
            -72.7015879,
            45.9893258
          ],
          [
            -72.7083477,
            45.994169
          ],
          [
            -72.7166031,
            45.9999914
          ],
          [
            -72.7232675,
            46.004782
          ],
          [
            -72.7287676,
            46.0086451
          ],
          [
            -72.72907,
            46.0088575
          ],
          [
            -72.7299013,
            46.0094414
          ],
          [
            -72.7340784,
            46.012379
          ]
        ]
      }
    },
    {
      "type": "Feature",
      "properties": {
        "name": "Intersection — origine de la scène",
        "osm_node_id": 540514913
      },
      "geometry": {
        "type": "Point",
        "coordinates": [
          -72.7232675,
          46.004782
        ]
      }
    }
  ]
}